CCSDS_OMM_VERS = 2.0
CREATION_DATE  = 
ORIGINATOR     = 

OBJECT_NAME    = HTV-X1
OBJECT_ID      = 2025-241A
CENTER_NAME    = EARTH
REF_FRAME      = TEME
TIME_SYSTEM    = UTC
MEAN_ELEMENT_THEORY = SGP/SGP4

EPOCH          = 2026-03-24T04:37:03.354816
MEAN_MOTION    = 15.32404592
ECCENTRICITY   = .00074036
INCLINATION    = 51.6371
RA_OF_ASC_NODE = 3.2073
ARG_OF_PERICENTER = 227.4114
MEAN_ANOMALY   = 132.6244

EPHEMERIS_TYPE = 0
CLASSIFICATION_TYPE = U
NORAD_CAT_ID   = 66174
ELEMENT_SET_NO = 999
REV_AT_EPOCH   = 2316
BSTAR          = .46147491E-3
MEAN_MOTION_DOT = .14323E-3
MEAN_MOTION_DDOT = 0

CCSDS_OMM_VERS = 2.0
CREATION_DATE  = 
ORIGINATOR     = 

OBJECT_NAME    = SZ-21 MODULE
OBJECT_ID      = 2025-246C
CENTER_NAME    = EARTH
REF_FRAME      = TEME
TIME_SYSTEM    = UTC
MEAN_ELEMENT_THEORY = SGP/SGP4

EPOCH          = 2026-03-23T04:26:13.491168
MEAN_MOTION    = 15.69572241
ECCENTRICITY   = .00006541
INCLINATION    = 41.4734
RA_OF_ASC_NODE = 120.2206
ARG_OF_PERICENTER = 218.7155
MEAN_ANOMALY   = 141.3640

EPHEMERIS_TYPE = 0
CLASSIFICATION_TYPE = U
NORAD_CAT_ID   = 66515
ELEMENT_SET_NO = 999
REV_AT_EPOCH   = 2019
BSTAR          = .35990835E-3
MEAN_MOTION_DOT = .43706E-3
MEAN_MOTION_DDOT = 0

CCSDS_OMM_VERS = 2.0
CREATION_DATE  = 
ORIGINATOR     = 

OBJECT_NAME    = SHENZHOU-22
OBJECT_ID      = 2025-272A
CENTER_NAME    = EARTH
REF_FRAME      = TEME
TIME_SYSTEM    = UTC
MEAN_ELEMENT_THEORY = SGP/SGP4

EPOCH          = 2026-03-24T05:42:53.103168
MEAN_MOTION    = 15.61417953
ECCENTRICITY   = .0004823
INCLINATION    = 41.4662
RA_OF_ASC_NODE = 119.5892
ARG_OF_PERICENTER = 8.9107
MEAN_ANOMALY   = 351.1817

EPHEMERIS_TYPE = 0
CLASSIFICATION_TYPE = U
NORAD_CAT_ID   = 66645
ELEMENT_SET_NO = 999
REV_AT_EPOCH   = 27910
BSTAR          = .23638183E-3
MEAN_MOTION_DOT = .20484E-3
MEAN_MOTION_DDOT = 0

CCSDS_OMM_VERS = 2.0
CREATION_DATE  = 
ORIGINATOR     = 

OBJECT_NAME    = SOYUZ-MS 28
OBJECT_ID      = 2025-275A
CENTER_NAME    = EARTH
REF_FRAME      = TEME
TIME_SYSTEM    = UTC
MEAN_ELEMENT_THEORY = SGP/SGP4

EPOCH          = 2026-03-24T03:55:35.551488
MEAN_MOTION    = 15.48514008
ECCENTRICITY   = .00062677
INCLINATION    = 51.6345
RA_OF_ASC_NODE = 0.8084
ARG_OF_PERICENTER = 226.2093
MEAN_ANOMALY   = 133.8378

EPHEMERIS_TYPE = 0
CLASSIFICATION_TYPE = U
NORAD_CAT_ID   = 66664
ELEMENT_SET_NO = 999
REV_AT_EPOCH   = 55771
BSTAR          = .2692749E-3
MEAN_MOTION_DOT = .1417E-3
MEAN_MOTION_DDOT = 0

CCSDS_OMM_VERS = 2.0
CREATION_DATE  = 
ORIGINATOR     = 

OBJECT_NAME    = DUPLEX
OBJECT_ID      = 1998-067XS
CENTER_NAME    = EARTH
REF_FRAME      = TEME
TIME_SYSTEM    = UTC
MEAN_ELEMENT_THEORY = SGP/SGP4

EPOCH          = 2026-03-23T23:11:21.726816
MEAN_MOTION    = 15.57109631
ECCENTRICITY   = .00031395
INCLINATION    = 51.6299
RA_OF_ASC_NODE = 357.9930
ARG_OF_PERICENTER = 174.3509
MEAN_ANOMALY   = 185.7519

EPHEMERIS_TYPE = 0
CLASSIFICATION_TYPE = U
NORAD_CAT_ID   = 66906
ELEMENT_SET_NO = 999
REV_AT_EPOCH   = 1735
BSTAR          = .3950955E-3
MEAN_MOTION_DOT = .28808E-3
MEAN_MOTION_DDOT = 0

CCSDS_OMM_VERS = 2.0
CREATION_DATE  = 
ORIGINATOR     = 

OBJECT_NAME    = ISS OBJECT XT
OBJECT_ID      = 1998-067XT
CENTER_NAME    = EARTH
REF_FRAME      = TEME
TIME_SYSTEM    = UTC
MEAN_ELEMENT_THEORY = SGP/SGP4

EPOCH          = 2026-03-24T00:23:19.539168
MEAN_MOTION    = 15.74343929
ECCENTRICITY   = .00053708
INCLINATION    = 51.6254
RA_OF_ASC_NODE = 352.2978
ARG_OF_PERICENTER = 171.7670
MEAN_ANOMALY   = 188.3418

EPHEMERIS_TYPE = 0
CLASSIFICATION_TYPE = U
NORAD_CAT_ID   = 66907
ELEMENT_SET_NO = 999
REV_AT_EPOCH   = 1743
BSTAR          = .13303942E-2
MEAN_MOTION_DOT = .200709E-2
MEAN_MOTION_DDOT = 0

CCSDS_OMM_VERS = 2.0
CREATION_DATE  = 
ORIGINATOR     = 

OBJECT_NAME    = ISS OBJECT XU
OBJECT_ID      = 1998-067XU
CENTER_NAME    = EARTH
REF_FRAME      = TEME
TIME_SYSTEM    = UTC
MEAN_ELEMENT_THEORY = SGP/SGP4

EPOCH          = 2026-03-24T00:18:50.563872
MEAN_MOTION    = 15.74539149
ECCENTRICITY   = .00056143
INCLINATION    = 51.6248
RA_OF_ASC_NODE = 352.2719
ARG_OF_PERICENTER = 172.3126
MEAN_ANOMALY   = 187.7961

EPHEMERIS_TYPE = 0
CLASSIFICATION_TYPE = U
NORAD_CAT_ID   = 66908
ELEMENT_SET_NO = 999
REV_AT_EPOCH   = 1743
BSTAR          = .13578396E-2
MEAN_MOTION_DOT = .206767E-2
MEAN_MOTION_DDOT = 0

CCSDS_OMM_VERS = 2.0
CREATION_DATE  = 
ORIGINATOR     = 

OBJECT_NAME    = SILVERSAT
OBJECT_ID      = 1998-067XV
CENTER_NAME    = EARTH
REF_FRAME      = TEME
TIME_SYSTEM    = UTC
MEAN_ELEMENT_THEORY = SGP/SGP4

EPOCH          = 2026-03-23T23:33:34.407072
MEAN_MOTION    = 15.78994089
ECCENTRICITY   = .00062297
INCLINATION    = 51.6221
RA_OF_ASC_NODE = 351.3039
ARG_OF_PERICENTER = 177.1516
MEAN_ANOMALY   = 182.9521

EPHEMERIS_TYPE = 0
CLASSIFICATION_TYPE = U
NORAD_CAT_ID   = 66909
ELEMENT_SET_NO = 999
REV_AT_EPOCH   = 1744
BSTAR          = .15388739E-2
MEAN_MOTION_DOT = .288378E-2
MEAN_MOTION_DDOT = 0

CCSDS_OMM_VERS = 2.0
CREATION_DATE  = 
ORIGINATOR     = 

OBJECT_NAME    = ISS OBJECT XW
OBJECT_ID      = 1998-067XW
CENTER_NAME    = EARTH
REF_FRAME      = TEME
TIME_SYSTEM    = UTC
MEAN_ELEMENT_THEORY = SGP/SGP4

EPOCH          = 2026-03-23T22:56:18.996288
MEAN_MOTION    = 15.73130824
ECCENTRICITY   = .00058761
INCLINATION    = 51.6238
RA_OF_ASC_NODE = 352.6360
ARG_OF_PERICENTER = 171.3926
MEAN_ANOMALY   = 188.7174

EPHEMERIS_TYPE = 0
CLASSIFICATION_TYPE = U
NORAD_CAT_ID   = 66910
ELEMENT_SET_NO = 999
REV_AT_EPOCH   = 1742
BSTAR          = .12411548E-2
MEAN_MOTION_DOT = .177198E-2
MEAN_MOTION_DDOT = 0

CCSDS_OMM_VERS = 2.0
CREATION_DATE  = 
ORIGINATOR     = 

OBJECT_NAME    = ISS OBJECT XX
OBJECT_ID      = 1998-067XX
CENTER_NAME    = EARTH
REF_FRAME      = TEME
TIME_SYSTEM    = UTC
MEAN_ELEMENT_THEORY = SGP/SGP4

EPOCH          = 2026-03-24T00:06:28.537344
MEAN_MOTION    = 15.84339121
ECCENTRICITY   = .00078645
INCLINATION    = 51.6198
RA_OF_ASC_NODE = 349.9255
ARG_OF_PERICENTER = 180.6946
MEAN_ANOMALY   = 179.4048

EPHEMERIS_TYPE = 0
CLASSIFICATION_TYPE = U
NORAD_CAT_ID   = 66911
ELEMENT_SET_NO = 999
REV_AT_EPOCH   = 1745
BSTAR          = .1612714E-2
MEAN_MOTION_DOT = .392372E-2
MEAN_MOTION_DDOT = 0

CCSDS_OMM_VERS = 2.0
CREATION_DATE  = 
ORIGINATOR     = 

OBJECT_NAME    = ISS OBJECT XY
OBJECT_ID      = 1998-067XY
CENTER_NAME    = EARTH
REF_FRAME      = TEME
TIME_SYSTEM    = UTC
MEAN_ELEMENT_THEORY = SGP/SGP4

EPOCH          = 2026-03-24T00:17:14.749728
MEAN_MOTION    = 15.66564755
ECCENTRICITY   = .00040295
INCLINATION    = 51.6277
RA_OF_ASC_NODE = 354.5382
ARG_OF_PERICENTER = 172.0225
MEAN_ANOMALY   = 188.0836

EPHEMERIS_TYPE = 0
CLASSIFICATION_TYPE = U
NORAD_CAT_ID   = 66912
ELEMENT_SET_NO = 999
REV_AT_EPOCH   = 1739
BSTAR          = .96250879E-3
MEAN_MOTION_DOT = .103447E-2
MEAN_MOTION_DDOT = 0

CCSDS_OMM_VERS = 2.0
CREATION_DATE  = 
ORIGINATOR     = 

OBJECT_NAME    = KNACKSAT-2
OBJECT_ID      = 1998-067XZ
CENTER_NAME    = EARTH
REF_FRAME      = TEME
TIME_SYSTEM    = UTC
MEAN_ELEMENT_THEORY = SGP/SGP4

EPOCH          = 2026-03-24T00:26:27.950784
MEAN_MOTION    = 15.53013062
ECCENTRICITY   = .00098227
INCLINATION    = 51.6326
RA_OF_ASC_NODE = 0.5913
ARG_OF_PERICENTER = 237.4563
MEAN_ANOMALY   = 122.5479

EPHEMERIS_TYPE = 0
CLASSIFICATION_TYPE = U
NORAD_CAT_ID   = 67683
ELEMENT_SET_NO = 999
REV_AT_EPOCH   = 701
BSTAR          = .61191478E-3
MEAN_MOTION_DOT = .38683E-3
MEAN_MOTION_DDOT = 0

